[{"OBJECT_NAME":"SPAWAR-CAL-O","OBJECT_ID":"2018-099J","EPOCH":"2026-03-09T17:45:15.080832","MEAN_MOTION":15.31356755,"ECCENTRICITY":0.00072392,"INCLINATION":97.4452,"RA_OF_ASC_NODE":132.0993,"ARG_OF_PERICENTER":285.067,"MEAN_ANOMALY":74.977,"EPHEMERIS_TYPE":0,"CLASSIFICATION_TYPE":"U","NORAD_CAT_ID":43766,"ELEMENT_SET_NO":999,"REV_AT_EPOCH":39828,"BSTAR":0.00069663212,"MEAN_MOTION_DOT":0.00021069,"MEAN_MOTION_DDOT":0},{"OBJECT_NAME":"STARLINK-30833","OBJECT_ID":"2023-166C","EPOCH":"2026-03-09T16:18:42.270624","MEAN_MOTION":15.30188,"ECCENTRICITY":0.00013245,"INCLINATION":53.1607,"RA_OF_ASC_NODE":219.9375,"ARG_OF_PERICENTER":77.1905,"MEAN_ANOMALY":282.9244,"EPHEMERIS_TYPE":0,"CLASSIFICATION_TYPE":"U","NORAD_CAT_ID":58152,"ELEMENT_SET_NO":999,"REV_AT_EPOCH":13317,"BSTAR":2.8028487e-5,"MEAN_MOTION_DOT":4.71e-6,"MEAN_MOTION_DDOT":0}]
